{
    "links": {
        "self": "http://www.neowsapp.com/rest/v1/neo/3182174?api_key=iIulBulltgU6a56xZRHN4H3l9WmuAYTsLGpBGhQ2"
    },
    "id": "3182174",
    "neo_reference_id": "3182174",
    "name": "(2004 JC)",
    "designation": "2004 JC",
    "nasa_jpl_url": "http://ssd.jpl.nasa.gov/sbdb.cgi?sstr=3182174",
    "absolute_magnitude_h": 20.5,
    "estimated_diameter": {
        "kilometers": {
            "estimated_diameter_min": 0.2111324448,
            "estimated_diameter_max": 0.4721064988
        },
        "meters": {
            "estimated_diameter_min": 211.1324447897,
            "estimated_diameter_max": 472.1064988055
        },
        "miles": {
            "estimated_diameter_min": 0.1311915784,
            "estimated_diameter_max": 0.2933532873
        },
        "feet": {
            "estimated_diameter_min": 692.6917701639,
            "estimated_diameter_max": 1548.9058855411
        }
    },
    "is_potentially_hazardous_asteroid": false,
    "close_approach_data": [
        {
            "close_approach_date": "2004-06-06",
            "close_approach_date_full": "2004-Jun-06 20:18",
            "epoch_date_close_approach": 1086553080000,
            "relative_velocity": {
                "kilometers_per_second": "14.01584546",
                "kilometers_per_hour": "50457.0436559806",
                "miles_per_hour": "31352.0447094619"
            },
            "miss_distance": {
                "astronomical": "0.151449896",
                "lunar": "58.914009544",
                "kilometers": "22656581.85332152",
                "miles": "14078147.151296176"
            },
            "orbiting_body": "Earth"
        },
        {
            "close_approach_date": "2004-07-05",
            "close_approach_date_full": "2004-Jul-05 00:17",
            "epoch_date_close_approach": 1088986620000,
            "relative_velocity": {
                "kilometers_per_second": "9.2059626079",
                "kilometers_per_hour": "33141.4653883534",
                "miles_per_hour": "20592.8177575577"
            },
            "miss_distance": {
                "astronomical": "0.0930691499",
                "lunar": "36.2038993111",
                "kilometers": "13922946.587750713",
                "miles": "8651317.8426893194"
            },
            "orbiting_body": "Venus"
        }
    ],
    "orbital_data": {
        "orbit_id": "16",
        "orbit_determination_date": "2017-04-06 09:12:50",
        "first_observation_date": "2004-05-08",
        "last_observation_date": "2004-05-29",
        "data_arc_in_days": 21,
        "observations_used": 55,
        "orbit_uncertainty": "8",
        "minimum_orbit_intersection": ".12102",
        "jupiter_tisserand_invariant": "3.116",
        "epoch_osculation": "2453139.5",
        "eccentricity": ".6698428623206745",
        "semi_major_axis": "2.471371006136546",
        "inclination": "8.958916227270597",
        "ascending_node_longitude": "107.973293043999",
        "orbital_period": "1419.074995669521",
        "perihelion_distance": ".8159407775297169",
        "perihelion_argument": "185.61083304",
        "aphelion_distance": "4.126801234743375",
        "perihelion_time": "2453188.825178055196",
        "mean_anomaly": "347.4868740876568",
        "mean_motion": ".2536863809866171",
        "equinox": "J2000",
        "orbit_class": {
            "orbit_class_type": "APO",
            "orbit_class_description": "Near-Earth asteroid orbits which cross the Earth’s orbit similar to that of 1862 Apollo",
            "orbit_class_range": "a (semi-major axis) > 1.0 AU; q (perihelion) < 1.017 AU"
        }
    },
    "is_sentry_object": false
}